"2 35742  86.4231 282.4657 0067879  60.0838 300.7094 14.65704565673780",
"IRIDIUM 33 DEB",
"1 35744U 97051RX  22061.13285658  .00001516  00000+0  37521-3 0  9997",
"2 35744  86.3387 216.5959 0032165 203.1511 156.8247 14.51054581673077",
"IRIDIUM 33 DEB",
"1 35745U 97051RY  22061.56151992  .00010177  00000+0  20170-2 0  9992",
"2 35745  86.3443 279.3367 0031166  50.6071 309.7893 14.61861807529172",
"IRIDIUM 33 DEB",
"1 35747U 97051SA  22059.22799726  .00001742  00000+0  77954-3 0  9998",
"2 35747  86.1322 248.9569 0179496  95.6449 266.5233 14.13821043383318",
"IRIDIUM 33 DEB",
"1 35749U 97051SC  22061.47182123  .00003152  00000+0  68950-3 0  9990",
"2 35749  86.3751 242.7212 0017562  28.8066 331.4108 14.57384258657242",
"IRIDIUM 33 DEB",
"1 35797U 97051SF  22059.20943473  .00001995  00000+0  48709-3 0  9997",
"2 35797  86.3481 224.5969 0023385 210.9004 149.0827 14.52014703671122",
"IRIDIUM 33 DEB",
"1 35799U 97051SH  22061.11259075  .00005341  00000+0  11346-2 0  9995",
"2 35799  85.9405  10.4156 0054440 198.7225 161.1983 14.58003874546110",
"IRIDIUM 33 DEB",
"1 35800U 97051SJ  22058.77787597  .00089160  00000+0  38301-2 0  9992",
"2 35800  86.2383  82.4620 0014998 170.3096 189.8441 15.22208571689660",
"IRIDIUM 33 DEB",
"1 35802U 97051SL  22061.51714422  .00005141  00000+0  12954-2 0  9990",
"2 35802  86.4573 336.4017 0081839  77.5383 283.4962 14.48951532676329",
"IRIDIUM 33 DEB",
"1 35805U 97051SP  22060.09697270  .00005112  00000+0  17354-2 0  9993",
"2 35805  86.3222 300.3034 0127028  25.3369 335.3981 14.32035147655241",
"IRIDIUM 33 DEB",
"1 35806U 97051SQ  22060.81756964  .00001225  00000+0  37892-3 0  9991",
"2 35806  86.3461 258.3870 0016892 352.0716   8.0213 14.40461440663394",
"IRIDIUM 33 DEB",
"1 35809U 97051ST  22060.22140109  .00001718  00000+0  44580-3 0  9996",
"2 35809  86.3378 227.0871 0021706 254.2197 229.2568 14.49106160666504",
"IRIDIUM 33 DEB",
"1 35846U 97051SW  22060.92900135  .00000604  00000+0  20263-3 0  9992",
"2 35846  86.3754 283.6324 0020119  38.6994 321.5639 14.35572122514619",
"IRIDIUM 33 DEB",
"1 35848U 97051SY  22061.27075356  .00001546  00000+0  39104-3 0  9991",
"2 35848  86.3961 258.6561 0014015 237.4809 122.5042 14.50317032465254",
"IRIDIUM 33 DEB",
"1 35850U 97051TA  22061.73540137  .00001600  00000+0  39957-3 0  9996",
"2 35850  86.3588 233.7701 0017995 224.9968 134.9779 14.50910184672711",
"IRIDIUM 33 DEB",
"1 35851U 97051TB  22061.32945218  .00015706  00000+0  24245-2 0  9996",
"2 35851  86.4031 276.3029 0065771 165.0354 195.2830 14.71784381465686",
"IRIDIUM 33 DEB",
"1 35853U 97051TD  22061.19293313  .00012531  00000+0  24236-2 0  9998",
"2 35853  86.3050 229.5909 0066058 256.0641 103.3217 14.61878421659349",
"IRIDIUM 33 DEB",
"1 35856U 97051TG  22061.18344701  .00015189  00000+0  19185-2 0  9997",
"2 35856  86.3679 212.3494 0078019 242.3024 292.2754 14.79636192501976",
"IRIDIUM 33 DEB",
"1 35857U 97051TH  22061.78929374  .00004047  00000+0  68063-3 0  9990",
"2 35857  86.4285 245.0081 0059771  17.4709 342.8542 14.68180759677186",
"IRIDIUM 33 DEB",
"1 35858U 97051TJ  22061.45631898  .00004507  00000+0  78676-3 0  9998",
"2 35858  86.3569 243.4615 0032539 349.3765  10.6758 14.67424489484723",
"IRIDIUM 33 DEB",
"1 35862U 97051TN  22061.36810654  .00022639  00000+0  24656-2 0  9996",
"2 35862  86.3758 201.2728 0024395 209.5719 180.0486 14.87679044526427",
"IRIDIUM 33 DEB",
"1 35863U 97051TP  22061.27067274  .00007161  00000+0  16147-2 0  9998",
"2 35863  86.3405 263.2944 0095685  18.7124 341.7559 14.53396301662305",
"IRIDIUM 33 DEB",
"1 35911U 97051TU  22060.93339073  .00002533  00000+0  90623-3 0  9993",
"2 35911  86.2336 243.2040 0089683 345.5023  14.3599 14.31482286669843",
"IRIDIUM 33 DEB",
"1 35915U 97051TY  22060.78215951  .00001893  00000+0  47833-3 0  9991",
"2 35915  86.3545 233.8886 0022116 228.9548 130.9746 14.50412793442088",
"IRIDIUM 33 DEB",
"1 35917U 97051UA  22060.74151766  .00007677  00000+0  12948-2 0  9996",
"2 35917  86.3936 228.0196 0016712 358.0505   2.0642 14.69282028390247",
"IRIDIUM 33 DEB",
"1 35918U 97051UB  22059.95871611  .00001111  00000+0  36534-3 0  9991",
"2 35918  86.4056 300.4737 0032799  66.0521 355.3188 14.37124005655243",
"IRIDIUM 33 DEB",
"1 35921U 97051UE  22059.59306220  .00002013  00000+0  72738-3 0  9992",
"2 35921  86.4255  11.1398 0143458 175.0952 185.1687 14.27501889453653",
"IRIDIUM 33 DEB",
"1 35922U 97051UF  22054.83078688  .00003366  00000+0  74008-3 0  9993",
"2 35922  86.3881 250.1732 0029721 161.3756 198.8547 14.56981809662172",
"IRIDIUM 33 DEB",
"1 35925U 97051UJ  22059.04483432  .00038434  00000+0  36511-2 0  9991",
"2 35925  86.3100 169.3613 0007227 115.5212 244.6765 14.93301975682257",
"IRIDIUM 33 DEB",
"1 35926U 97051UK  22061.38949771  .00005338  00000+0  10025-2 0  9994",
"2 35926  86.3493 208.3099 0007676 102.3532 257.8540 14.64530513670560",
"IRIDIUM 33 DEB",
"1 35929U 97051UN  22058.17426753  .00002244  00000+0  49649-3 0  9998",
"2 35929  86.3531 215.3897 0031243 137.5747 222.7884 14.56505205674236",
"IRIDIUM 33 DEB",
"1 36011U 97051US  22059.88037122  .00000554  00000+0  18706-3 0  9990",
"2 36011  86.3394 265.2872 0022256  77.8269 346.0960 14.35010483655805",
"IRIDIUM 33 DEB",
"1 36012U 97051UT  22058.43933063  .00003251  00000+0  17806-2 0  9996",
"2 36012  86.4552 128.5325 0321215 222.9621 134.6060 13.88626067461039",
"IRIDIUM 33 DEB",
"1 36017U 97051UY  22058.62976326  .00050839  00000+0  41690-2 0  9993",
"2 36017  86.3609 186.5615 0010088  33.5418 339.7080 14.98976012463857",
"IRIDIUM 33 DEB",
"1 36019U 97051VA  22061.52920613  .00003114  00000+0  67502-3 0  9991",
"2 36019  86.3910 244.9483 0006705 199.1195 215.7390 14.57896766662386",
"IRIDIUM 33 DEB",
"1 36021U 97051VC  22061.23678738  .00007541  00000+0  22489-2 0  9992",
"2 36021  86.4195 344.3224 0128497 338.6617  20.9249 14.38228792385428",
"IRIDIUM 33 DEB",
"1 36023U 97051VE  22061.42703670  .00006097  00000+0  13086-2 0  9997",
"2 36023  86.3380 231.2561 0025188 154.4639 205.7821 14.58297321472033",
"IRIDIUM 33 DEB",
"1 36025U 97051VG  22061.12905997  .00011929  00000+0  22380-2 0  9999",
"2 36025  86.5523   9.8966 0034650 191.4603 168.5825 14.64266990546464",
"IRIDIUM 33 DEB",
"1 36028U 97051VK  22061.67213180  .00002015  00000+0  45313-3 0  9996",
"2 36028  86.3407 207.9218 0034630 133.9240 226.4836 14.55637391669406",
"IRIDIUM 33 DEB",
"1 36080U 97051VM  22059.21842434  .00000657  00000+0  20993-3 0  9998",
"2 36080  86.3198 245.3060 0021080  52.2160 308.0943 14.38114072274822",
"IRIDIUM 33 DEB",
"1 36081U 97051VN  22061.65022709  .00003952  00000+0  10439-2 0  9999",
"2 36081  86.2374 206.8011 0056748  67.0521 293.6657 14.47720139656002",
"IRIDIUM 33 DEB",
"1 36083U 97051VQ  22061.28083965  .00000603  00000+0  20031-3 0  9991",
"2 36083  86.3415 264.2088 0031430  85.5628 274.9158 14.35840571655846",
"IRIDIUM 33 DEB",
"1 36390U 97051VU  22060.11294016  .00001903  00000+0  46570-3 0  9994",
"2 36390  86.3075 198.0286 0047076 185.5591 174.5099 14.51363759460902",
"IRIDIUM 33 DEB",
"1 36482U 97051VY  22061.16396586  .00002416  00000+0  55587-3 0  9995",
"2 36482  86.3461 217.4686 0019573 191.1513 168.9263 14.54939409479242",
"IRIDIUM 33 DEB",
"1 36483U 97051VZ  22058.32530210  .00000568  00000+0  18243-3 0  9998",
"2 36483  86.3791 279.9749 0010333  21.1014 339.0608 14.37675419452081",
"IRIDIUM 33 DEB",
"1 36485U 97051WB  22060.28787107  .00004634  00000+0  15602-2 0  9990",
"2 36485  86.4414   7.2121 0119738  59.3767 301.9170 14.32901704465810",
"IRIDIUM 33 DEB",
"1 36486U 97051WC  22061.66681066  .00005442  00000+0  96247-3 0  9994",
"2 36486  86.3550 208.1204 0017500  44.8094 315.4530 14.67124692684905",
"IRIDIUM 33 DEB",
"1 36487U 97051WD  22057.62411589  .00003842  00000+0  16825-2 0  9992",
"2 36487  86.3703  18.2781 0173239  68.9021 293.0587 14.15793558497298",
"IRIDIUM 33 DEB",
"1 36490U 97051WG  22061.76393701  .00001470  00000+0  39276-3 0  9992",
"2 36490  86.3740 254.2436 0002625  61.7398 298.4070 14.47759813663595",
"IRIDIUM 33 DEB",
"1 36492U 97051WJ  22061.00893997  .00003903  00000+0  78666-3 0  9992",
"2 36492  86.4201 265.9984 0011743   7.2225 352.9152 14.61252735671067",
"IRIDIUM 33 DEB",
"1 36493U 97051WK  22061.78510013  .00001236  00000+0  34707-3 0  9998",
"2 36493  86.3610 252.3032 0014434 307.0326  52.9555 14.45177275670585",
"IRIDIUM 33 DEB",
"1 36497U 97051WP  22055.06971272  .00001721  00000+0  54260-3 0  9999",
"2 36497  86.1675 165.5316 0072178  55.3871  66.1282 14.38279919455816",
"IRIDIUM 33 DEB",
"1 36563U 97051WS  22055.66692974  .00029922  00000+0  31911-2 0  9998",
"2 36563  86.3552 200.5136 0033787 319.0555  40.8133 14.88297348667021",
"IRIDIUM 33 DEB",
"1 36566U 97051WV  22061.25837105  .00008018  00000+0  32256-2 0  9996",
"2 36566  86.4276  39.9348 0168135   8.7324 351.6724 14.20586527647673",
"IRIDIUM 33 DEB",
"1 36642U 97051XC  22059.73733978  .00011971  00000+0  18812-2 0  9998",
"2 36642  86.3695 225.6426 0019407 272.8398  87.0598 14.72367322525092",
"IRIDIUM 33 DEB",
"1 37136U 97051XG  22050.76474901  .00000739  00000+0  31971-3 0  9991",
"2 37136  86.1752 224.7284 0086728 120.8936 240.0817 14.20940982446926",
"IRIDIUM 33 DEB",
"1 37548U 97051XH  22060.85431721  .00001036  00000+0  34557-3 0  9996",
"2 37548  86.3529 275.3071 0031929  78.9652 281.5133 14.36334501659933",
"IRIDIUM 33 DEB",
"1 37549U 97051XJ  22060.54060853  .00011324  00000+0  20648-2 0  9993",
"2 37549  86.3778 261.7287 0038517 155.9941 204.3079 14.65443147664022",
"IRIDIUM 33 DEB",
"1 37550U 97051XK  22061.29346383  .00001309  00000+0  36293-3 0  9999",
"2 37550  86.3809 262.4135 0003888  95.0396 265.1250 14.45892283662593",
"IRIDIUM 33 DEB",
"1 37555U 97051XQ  22061.08587380  .00011581  00000+0  19510-2 0  9990",
"2 37555  86.4557 297.3897 0051404 234.3560 125.2862 14.68560514473161",
"IRIDIUM 33 DEB",
"1 37557U 97051XS  22061.50837005  .00005784  00000+0  18419-2 0  9996",
"2 37557  86.3762 337.1457 0115645  78.2079 283.2063 14.35904975495555",
"IRIDIUM 33 DEB",
